sat05905
1 05905U 72019A   20046.72600743  .00000022  00000-0  22902-4 0  9992
2 05905  82.9733  45.0207 0019303 144.8107  29.0840 13.19862167306918
